NORAD_CAT_ID,OBJECT_NAME,OBJECT_TYPE,EPOCH,MEAN_MOTION,ECCENTRICITY,INCLINATION,RA_OF_ASC_NODE,ARG_OF_PERICENTER,MEAN_ANOMALY,BSTAR,MEAN_MOTION_DOT,MEAN_MOTION_DDOT,TLE_LINE0,TLE_LINE1,TLE_LINE2,SEMIMAJOR_AXIS,PERIOD,APOGEE,PERIGEE,DECAYED
50840.0,STARLINK-3295,PAYLOAD,2023-11-08 12:01:44,15.08847362,0.0001861,53.2202,44.7508,99.9058,260.2145,0.00030204,4.523e-05,0.0,0 STARLINK-3295,1 50840U 22001AP  23312.50121489  .00004523  00000-0  30204-3 0  9999,2 50840  53.2202  44.7508 0001861  99.9058 260.2145 15.08847362102891,6917.858,95.437,541.01,538.435,0.0
50840.0,STARLINK-3295,PAYLOAD,2023-11-08 13:37:07,15.08850219,0.0001478,53.2191,44.4478,82.6894,277.4266,0.00034984,5.286e-05,0.0,0 STARLINK-3295,1 50840U 22001AP  23312.56745202  .00005286  00000-0  34984-3 0  9996,2 50840  53.2191  44.4478 0001478  82.6894 277.4266 15.08850219101610,6917.849,95.437,540.737,538.692,0.0
50840.0,STARLINK-3295,PAYLOAD,2023-11-08 23:09:27,15.08842426,0.0001205,53.2192,42.6635,88.8089,271.3041,0.00080634,0.00012569,0.0,0 STARLINK-3295,1 50840U 22001AP  23312.96489706  .00012569  00000-0  80634-3 0  9999,2 50840  53.2192  42.6635 0001205  88.8089 271.3041 15.08842426102962,6917.873,95.437,540.572,538.904,0.0
50840.0,STARLINK-3295,PAYLOAD,2023-11-09 13:27:54,15.08864157,0.0001194,53.2193,39.9928,86.0567,274.0561,0.00056744,8.76e-05,0.0,0 STARLINK-3295,1 50840U 22001AP  23313.56104388  .00008760  00000-0  56744-3 0  9999,2 50840  53.2193  39.9928 0001194  86.0567 274.0561 15.08864157101764,6917.807,95.436,540.498,538.846,0.0
50840.0,STARLINK-3295,PAYLOAD,2023-11-09 23:00:14,15.08832512,0.000207,53.2191,38.2079,83.5266,276.5962,0.00018901,2.721e-05,0.0,0 STARLINK-3295,1 50840U 22001AP  23313.95849982  .00002721  00000-0  18901-3 0  9992,2 50840  53.2191  38.2079 0002070  83.5266 276.5962 15.08832512103116,6917.903,95.438,541.2,538.336,0.0
50840.0,STARLINK-3295,PAYLOAD,2023-11-10 11:43:18,15.08845687,0.0001571,53.2197,35.8243,80.1992,279.9177,-0.00015949,-2.826e-05,0.0,0 STARLINK-3295,1 50840U 22001AP  23314.48840766 -.00002826  00000-0 -15949-3 0  9999,2 50840  53.2197  35.8243 0001571  80.1992 279.9177 15.08845687103192,6917.863,95.437,540.815,538.641,0.0
50840.0,STARLINK-3295,PAYLOAD,2023-11-10 13:18:41,15.08855064,0.0001632,53.2199,35.527,84.0734,276.0444,-1.2496e-05,-4.87e-06,0.0,0 STARLINK-3295,1 50840U 22001AP  23314.55464297 -.00000487  00000-0 -12496-4 0  9994,2 50840  53.2199  35.5270 0001632  84.0734 276.0444 15.08855064101919,6917.834,95.437,540.828,538.57,0.0
50840.0,STARLINK-3295,PAYLOAD,2023-11-10 22:51:00,15.08842993,0.0001619,53.2202,33.7436,86.1167,274.0011,-0.00014603,-2.612e-05,0.0,0 STARLINK-3295,1 50840U 22001AP  23314.95208733 -.00002612  00000-0 -14603-3 0  9992,2 50840  53.2202  33.7436 0001619  86.1167 274.0011 15.08842993103261,6917.871,95.437,540.856,538.616,0.0
50840.0,STARLINK-3295,PAYLOAD,2023-11-11 11:34:05,15.08842244,0.00016,53.2202,31.3634,92.9058,267.2117,-5.7507e-05,-1.203e-05,0.0,0 STARLINK-3295,1 50840U 22001AP  23315.48201298 -.00001203  00000-0 -57507-4 0  9996,2 50840  53.2202  31.3634 0001600  92.9058 267.2117 15.08842244102055,6917.874,95.437,540.845,538.632,0.0
50840.0,STARLINK-3295,PAYLOAD,2023-11-11 14:44:51,15.08851867,0.0001678,53.2203,30.7674,91.1049,269.0135,-9.256e-05,-1.761e-05,0.0,0 STARLINK-3295,1 50840U 22001AP  23315.61448647 -.00001761  00000-0 -92560-4 0  9999,2 50840  53.2203  30.7674 0001678  91.1049 269.0135 15.08851867102072,6917.844,95.437,540.87,538.548,0.0
50840.0,STARLINK-3295,PAYLOAD,2023-11-12 11:24:52,15.08842718,0.0001786,53.2199,26.9018,95.828,264.2915,0.00010709,1.417e-05,0.0,0 STARLINK-3295,1 50840U 22001AP  23316.47560921  .00001417  00000-0  10709-3 0  9994,2 50840  53.2199  26.9018 0001786  95.8280 264.2915 15.08842718103498,6917.872,95.437,540.973,538.502,0.0
50840.0,STARLINK-3295,PAYLOAD,2023-11-13 11:15:39,15.08847919,0.000176,53.2196,22.441,96.6714,263.4478,0.00016968,2.414e-05,0.0,0 STARLINK-3295,1 50840U 22001AP  23317.46920493  .00002414  00000-0  16968-3 0  9999,2 50840  53.2196  22.4410 0001760  96.6714 263.4478 15.08847919102352,6917.856,95.437,540.939,538.504,0.0
50840.0,STARLINK-3295,PAYLOAD,2023-11-14 11:06:26,15.08841195,0.0001691,53.2195,17.984,96.1131,264.0054,1.361e-05,-7.1e-07,0.0,0 STARLINK-3295,1 50840U 22001AP  23318.46281198 -.00000071  00000-0  13610-4 0  9992,2 50840  53.2195  17.9840 0001691  96.1131 264.0054 15.08841195103794,6917.877,95.437,540.912,538.572,0.0
50840.0,STARLINK-3295,PAYLOAD,2023-11-14 20:38:45,15.08839985,0.0001722,53.2194,16.1993,93.5658,266.5532,6.3145e-05,7.17e-06,0.0,0 STARLINK-3295,1 50840U 22001AP  23318.86025248  .00000717  00000-0  63145-4 0  9992,2 50840  53.2194  16.1993 0001722  93.5658 266.5532 15.08839985102569,6917.88,95.438,540.937,538.554,0.0
50840.0,STARLINK-3295,PAYLOAD,2023-11-15 09:21:51,15.08841782,0.0001817,53.2198,13.8224,111.9796,248.139,-9.7455e-05,-1.839e-05,0.0,0 STARLINK-3295,1 50840U 22001AP  23319.39017595 -.00001839  00000-0 -97455-4 0  9996,2 50840  53.2198  13.8224 0001817 111.9796 248.1390 15.08841782102642,6917.875,95.437,540.997,538.483,0.0
50840.0,STARLINK-3295,PAYLOAD,2023-11-15 20:29:33,15.08838762,0.0001734,53.2199,11.7411,97.5315,262.5874,-9.1116e-06,-4.33e-06,0.0,0 STARLINK-3295,1 50840U 22001AP  23319.85385610 -.00000433  00000-0 -91116-5 0  9991,2 50840  53.2199  11.7411 0001734  97.5315 262.5874 15.08838762102711,6917.884,95.438,540.949,538.55,0.0
50840.0,STARLINK-3295,PAYLOAD,2023-11-16 09:12:38,15.08840273,0.0001831,53.2194,9.3622,101.6072,258.5126,8.4309e-05,1.054e-05,0.0,0 STARLINK-3295,1 50840U 22001AP  23320.38377481  .00001054  00000-0  84309-4 0  9991,2 50840  53.2194   9.3622 0001831 101.6072 258.5126 15.08840273102791,6917.88,95.438,541.011,538.478,0.0
50840.0,STARLINK-3295,PAYLOAD,2023-11-16 20:20:20,15.08838165,0.0001762,53.2187,7.2787,85.2686,274.8508,9.6144e-05,1.242e-05,0.0,0 STARLINK-3295,1 50840U 22001AP  23320.84745725  .00001242  00000-0  96144-4 0  9991,2 50840  53.2187   7.2787 0001762  85.2686 274.8508 15.08838165102863,6917.886,95.438,540.97,538.532,0.0
50840.0,STARLINK-3295,PAYLOAD,2023-11-17 02:41:52,15.08835856,0.00017,53.2188,6.0906,93.2634,266.8553,0.00011905,1.607e-05,0.0,0 STARLINK-3295,1 50840U 22001AP  23321.11241839  .00001607  00000-0  11905-3 0  9995,2 50840  53.2188   6.0906 0001700  93.2634 266.8553 15.08835856104191,6917.893,95.438,540.934,538.582,0.0
50840.0,STARLINK-3295,PAYLOAD,2023-11-17 10:38:48,15.08837485,0.0001672,53.2186,4.6032,92.7863,267.332,0.0001085,1.439e-05,0.0,0 STARLINK-3295,1 50840U 22001AP  23321.44361901  .00001439  00000-0  10850-3 0  9995,2 50840  53.2186   4.6032 0001672  92.7863 267.3320 15.08837485102959,6917.888,95.438,540.91,538.596,0.0
50840.0,STARLINK-3295,PAYLOAD,2023-11-17 20:11:07,15.08836433,0.0001677,53.2182,2.8181,88.3966,271.7218,7.1522e-05,8.5e-06,0.0,0 STARLINK-3295,1 50840U 22001AP  23321.84106142  .00000850  00000-0  71522-4 0  9993,2 50840  53.2182   2.8181 0001677  88.3966 271.7218 15.08836433103015,6917.891,95.438,540.916,538.596,0.0
50840.0,STARLINK-3295,PAYLOAD,2023-11-18 12:04:58,15.08842116,0.0001566,53.2169,359.8442,90.5465,269.5707,5.9067e-05,6.52e-06,0.0,0 STARLINK-3295,1 50840U 22001AP  23322.50345857  .00000652  00000-0  59067-4 0  9995,2 50840  53.2169 359.8442 0001566  90.5465 269.5707 15.08842116104408,6917.874,95.437,540.822,538.656,0.0
50840.0,STARLINK-3295,PAYLOAD,2023-11-18 20:01:54,15.08835946,0.0001534,53.2169,358.3574,95.0737,265.043,0.00016401,2.323e-05,0.0,0 STARLINK-3295,1 50840U 22001AP  23322.83466006  .00002323  00000-0  16401-3 0  9992,2 50840  53.2169 358.3574 0001534  95.0737 265.0430 15.08835946103164,6917.893,95.438,540.819,538.697,0.0
50840.0,STARLINK-3295,PAYLOAD,2023-11-19 08:44:59,15.08846939,0.0001551,53.2164,355.9783,91.3263,268.7907,0.0001355,1.87e-05,0.0,0 STARLINK-3295,1 50840U 22001AP  23323.36457258  .00001870  00000-0  13550-3 0  9998,2 50840  53.2164 355.9783 0001551  91.3263 268.7907 15.08846939103248,6917.859,95.437,540.797,538.651,0.0
50840.0,STARLINK-3295,PAYLOAD,2023-11-19 19:52:41,15.08844531,0.0001505,53.2168,353.8969,90.7595,269.3569,0.00010097,1.32e-05,0.0,0 STARLINK-3295,1 50840U 22001AP  23323.82825362  .00001320  00000-0  10097-3 0  9997,2 50840  53.2168 353.8969 0001505  90.7595 269.3569 15.08844531104603,6917.867,95.437,540.773,538.69,0.0
50840.0,STARLINK-3295,PAYLOAD,2023-11-20 08:35:46,15.08837783,0.0001628,53.2177,351.5166,97.5921,262.5256,0.00013584,1.874e-05,0.0,0 STARLINK-3295,1 50840U 22001AP  23324.35817730  .00001874  00000-0  13584-3 0  9994,2 50840  53.2177 351.5166 0001628  97.5921 262.5256 15.08837783104688,6917.887,95.438,540.878,538.626,0.0
50840.0,STARLINK-3295,PAYLOAD,2023-11-20 11:46:32,15.08844358,0.0001623,53.2176,350.9218,99.2963,260.8212,7.6361e-05,9.28e-06,0.0,0 STARLINK-3295,1 50840U 22001AP  23324.49065369  .00000928  00000-0  76361-4 0  9994,2 50840  53.2176 350.9218 0001623  99.2963 260.8212 15.08844358103417,6917.867,95.437,540.855,538.609,0.0
50840.0,STARLINK-3295,PAYLOAD,2023-11-21 11:37:19,15.08845247,0.000163,53.2178,346.462,93.4936,266.6242,2.1791e-05,5.9e-07,0.0,0 STARLINK-3295,1 50840U 22001AP  23325.48425391  .00000059  00000-0  21791-4 0  9991,2 50840  53.2178 346.4620 0001630  93.4936 266.6242 15.08845247104854,6917.864,95.437,540.857,538.602,0.0
50840.0,STARLINK-3295,PAYLOAD,2023-11-22 08:17:20,15.08845925,0.0001617,53.2182,342.5949,91.948,268.1697,8.2881e-05,1.031e-05,0.0,0 STARLINK-3295,1 50840U 22001AP  23326.34537274  .00001031  00000-0  82881-4 0  9999,2 50840  53.2182 342.5949 0001617  91.9480 268.1697 15.08845925103697,6917.862,95.437,540.846,538.609,0.0
50840.0,STARLINK-3295,PAYLOAD,2023-11-23 09:43:30,15.08849439,0.000164,53.2182,337.8377,94.1944,265.9235,0.00010915,1.45e-05,0.0,0 STARLINK-3295,1 50840U 22001AP  23327.40520975  .00001450  00000-0  10915-3 0  9990,2 50840  53.2182 337.8377 0001640  94.1944 265.9235 15.08849439105144,6917.852,95.437,540.851,538.582,0.0
